ORBCOMM FM20 [+]        
1 25416U 98046D   24080.35410019  .00001433  00000+0  54775-3 0  9993
2 25416  44.9940 166.7597 0001741 229.4034 130.6662 14.34989015339023
ORBCOMM FM16 [-]        
1 25417U 98046E   24080.55495387  .00002477  00000+0  89458-3 0  9992
2 25417  44.9935 161.9490 0004924 199.0710 160.9954 14.35889049338987
ORBCOMM FM15 [-]        
1 25418U 98046F   24079.38857514  .00001741  00000+0  64678-3 0  9996
2 25418  44.9971 171.3995 0004487 195.5733 164.4977 14.35619531338827
ORBCOMM FM14 [-]        
1 25419U 98046G   24080.34353906  .00002294  00000+0  83426-3 0  9997
2 25419  44.9953 166.0692 0003271 199.5041 264.0964 14.35773036338913
ORBCOMM FM13 [+]        
1 25420U 98046H   24080.34446644  .00001759  00000+0  65964-3 0  9993
2 25420  44.9974 170.6590 0005101 178.4456 181.6407 14.35103416337987
ORBCOMM FM21 [-]        
1 25475U 98053A   24080.50217607  .00001794  00000+0  67241-3 0  9993
2 25475  45.0076 254.1679 0001139 146.3174 213.7746 14.35065512332023
ORBCOMM FM23 [-]        
1 25477U 98053C   24080.46213188  .00001792  00000+0  67131-3 0  9996
2 25477  45.0076 256.7981 0001961 123.1349 236.9687 14.35095173332161
